[{"OBJECT_NAME":"YAOGAN-36 05B","OBJECT_ID":"2023-106C","EPOCH":"2026-03-09T23:10:00.235200","MEAN_MOTION":15.17368279,"ECCENTRICITY":0.00161406,"INCLINATION":34.9961,"RA_OF_ASC_NODE":339.5115,"ARG_OF_PERICENTER":302.2426,"MEAN_ANOMALY":57.6723,"EPHEMERIS_TYPE":0,"CLASSIFICATION_TYPE":"U","NORAD_CAT_ID":57454,"ELEMENT_SET_NO":999,"REV_AT_EPOCH":14578,"BSTAR":0.00041497757,"MEAN_MOTION_DOT":8.482e-5,"MEAN_MOTION_DDOT":0},{"OBJECT_NAME":"PULSAR-0","OBJECT_ID":"2025-135P","EPOCH":"2026-03-09T21:02:58.177536","MEAN_MOTION":15.1958967,"ECCENTRICITY":0.00037333,"INCLINATION":97.4569,"RA_OF_ASC_NODE":184.5909,"ARG_OF_PERICENTER":149.6553,"MEAN_ANOMALY":210.4899,"EPHEMERIS_TYPE":0,"CLASSIFICATION_TYPE":"U","NORAD_CAT_ID":64541,"ELEMENT_SET_NO":999,"REV_AT_EPOCH":3974,"BSTAR":0.00023616879,"MEAN_MOTION_DOT":4.959e-5,"MEAN_MOTION_DDOT":0}]
